NORAD_CAT_ID,OBJECT_NAME,OBJECT_TYPE,EPOCH,MEAN_MOTION,ECCENTRICITY,INCLINATION,RA_OF_ASC_NODE,ARG_OF_PERICENTER,MEAN_ANOMALY,BSTAR,MEAN_MOTION_DOT,MEAN_MOTION_DDOT,TLE_LINE0,TLE_LINE1,TLE_LINE2,SEMIMAJOR_AXIS,PERIOD,APOGEE,PERIGEE,DECAYED
54063.0,STARLINK-5225,PAYLOAD,2023-09-17 12:05:56,15.08848139,0.0001042,53.2164,83.0959,65.1515,294.9585,0.00026574,3.945e-05,0.0,0 STARLINK-5225,1 54063U 22136N   23260.50412114  .00003945  00000-0  26574-3 0  9991,2 54063  53.2164  83.0959 0001042  65.1515 294.9585 15.08848139 50346,6917.856,95.437,540.441,539.0,0.0
54063.0,STARLINK-5225,PAYLOAD,2023-09-17 18:27:28,15.08849637,0.000114,53.2174,81.9078,61.6183,298.4924,0.00022152,3.24e-05,0.0,0 STARLINK-5225,1 54063U 22136N   23260.76907940  .00003240  00000-0  22152-3 0  9991,2 54063  53.2174  81.9078 0001140  61.6183 298.4924 15.08849637 50864,6917.851,95.437,540.505,538.927,0.0
54063.0,STARLINK-5225,PAYLOAD,2023-09-18 11:56:42,15.08841905,0.0001509,53.2177,78.6333,126.8062,233.3069,5.322e-05,5.59e-06,0.0,0 STARLINK-5225,1 54063U 22136N   23261.49771980  .00000559  00000-0  53220-4 0  9996,2 54063  53.2177  78.6333 0001509 126.8062 233.3069 15.08841905 50490,6917.875,95.437,540.783,538.696,0.0
54063.0,STARLINK-5225,PAYLOAD,2023-09-18 18:18:15,15.08844355,0.000113,53.2175,77.4474,72.7722,287.3394,5.2933e-05,5.55e-06,0.0,0 STARLINK-5225,1 54063U 22136N   23261.76268070  .00000555  00000-0  52933-4 0  9993,2 54063  53.2175  77.4474 0001130  72.7722 287.3394 15.08844355 51014,6917.867,95.437,540.514,538.95,0.0
54063.0,STARLINK-5225,PAYLOAD,2023-09-20 11:38:17,15.08834873,0.0001217,53.2176,69.7153,79.4691,280.6438,-8.4636e-06,-4.23e-06,0.0,0 STARLINK-5225,1 54063U 22136N   23263.48492493 -.00000423  00000-0 -84636-5 0  9994,2 54063  53.2176  69.7153 0001217  79.4691 280.6438 15.08834873 51275,6917.896,95.438,540.603,538.919,0.0
54063.0,STARLINK-5225,PAYLOAD,2023-09-20 17:59:50,15.08821002,0.0001001,53.2177,68.5249,94.1463,265.9643,-0.00023493,-4.023e-05,0.0,0 STARLINK-5225,1 54063U 22136N   23263.74989099 -.00004023  00000-0 -23493-3 0  9998,2 54063  53.2177  68.5249 0001001  94.1463 265.9643 15.08821002 51310,6917.938,95.439,540.496,539.111,0.0
54063.0,STARLINK-5225,PAYLOAD,2023-09-20 21:10:36,15.08820672,9.61e-05,53.2177,67.9304,95.0092,265.101,-0.00024114,-4.121e-05,0.0,0 STARLINK-5225,1 54063U 22136N   23263.88237185 -.00004121  00000-0 -24114-3 0  9995,2 54063  53.2177  67.9304 0000961  95.0092 265.1010 15.08820672 50857,6917.939,95.439,540.469,539.14,0.0
54063.0,STARLINK-5225,PAYLOAD,2023-09-21 09:53:42,15.08827042,8.74e-05,53.2178,65.5508,95.5329,264.5763,6.5109e-05,7.48e-06,0.0,0 STARLINK-5225,1 54063U 22136N   23264.41229633  .00000748  00000-0  65109-4 0  9993,2 54063  53.2178  65.5508 0000874  95.5329 264.5763 15.08827042 50934,6917.92,95.438,540.39,539.18,0.0
54063.0,STARLINK-5225,PAYLOAD,2023-09-21 16:15:14,15.08837627,9.05e-05,53.2175,64.3619,94.3673,265.7423,0.00042897,6.545e-05,0.0,0 STARLINK-5225,1 54063U 22136N   23264.67725561  .00006545  00000-0  42897-3 0  9991,2 54063  53.2175  64.3619 0000905  94.3673 265.7423 15.08837627 51459,6917.888,95.438,540.379,539.127,0.0
54063.0,STARLINK-5225,PAYLOAD,2023-09-22 11:19:52,15.08861236,9.12e-05,53.2181,60.7943,95.4066,264.703,0.00080496,0.00012554,0.0,0 STARLINK-5225,1 54063U 22136N   23265.47213190  .00012554  00000-0  80496-3 0  9994,2 54063  53.2181  60.7943 0000912  95.4066 264.7030 15.08861236 51098,6917.815,95.436,540.311,539.05,0.0
54063.0,STARLINK-5225,PAYLOAD,2023-09-22 17:41:24,15.08872029,9e-05,53.2182,59.6053,94.802,265.3075,0.00098074,0.00015369,0.0,0 STARLINK-5225,1 54063U 22136N   23265.73708680  .00015369  00000-0  98074-3 0  9994,2 54063  53.2182  59.6053 0000900  94.8020 265.3075 15.08872029 51614,6917.782,95.436,540.27,539.025,0.0
54063.0,STARLINK-5225,PAYLOAD,2023-09-23 03:13:42,15.08866315,7.07e-05,53.2177,57.821,101.3409,258.7663,0.00058021,8.965e-05,0.0,0 STARLINK-5225,1 54063U 22136N   23266.13452261  .00008965  00000-0  58021-3 0  9992,2 54063  53.2177  57.8210 0000707 101.3409 258.7663 15.08866315 51679,6917.8,95.436,540.154,539.176,0.0
54063.0,STARLINK-5225,PAYLOAD,2023-09-23 17:32:10,15.08855727,8.91e-05,53.2165,55.1425,89.5299,270.5795,0.00026739,3.972e-05,0.0,0 STARLINK-5225,1 54063U 22136N   23266.73068180  .00003972  00000-0  26739-3 0  9995,2 54063  53.2165  55.1425 0000891  89.5299 270.5795 15.08855727 51766,6917.832,95.437,540.314,539.081,0.0
54063.0,STARLINK-5225,PAYLOAD,2023-09-24 11:01:25,15.08844554,7.69e-05,53.2171,51.8744,78.428,281.6799,0.00076503,0.0001191,0.0,0 STARLINK-5225,1 54063U 22136N   23267.45932341  .00011910  00000-0  76503-3 0  9999,2 54063  53.2171  51.8744 0000769  78.4280 281.6799 15.08844554 51876,6917.866,95.437,540.263,539.199,0.0
54063.0,STARLINK-5225,PAYLOAD,2023-09-24 14:12:11,15.08851481,6.88e-05,53.2172,51.2795,72.911,287.1958,0.00076703,0.00011944,0.0,0 STARLINK-5225,1 54063U 22136N   23267.59180338  .00011944  00000-0  76703-3 0  9994,2 54063  53.2172  51.2795 0000688  72.9110 287.1958 15.08851481 51413,6917.845,95.437,540.186,539.234,0.0
54063.0,STARLINK-5225,PAYLOAD,2023-09-24 17:22:57,15.08857562,9.98e-05,53.2174,50.684,89.8498,270.2609,0.00097165,0.00015217,0.0,0 STARLINK-5225,1 54063U 22136N   23267.72428210  .00015217  00000-0  97165-3 0  9995,2 54063  53.2174  50.6840 0000998  89.8498 270.2609 15.08857562 51433,6917.827,95.436,540.382,539.001,0.0
54063.0,STARLINK-5225,PAYLOAD,2023-09-25 09:16:49,15.08857198,0.000114,53.2159,47.7107,97.1246,262.9876,0.0011759,0.00018485,0.0,0 STARLINK-5225,1 54063U 22136N   23268.38668203  .00018485  00000-0  11759-2 0  9990,2 54063  53.2159  47.7107 0001140  97.1246 262.9876 15.08857198 52016,6917.828,95.436,540.481,538.904,0.0
54063.0,STARLINK-5225,PAYLOAD,2023-09-25 15:38:21,15.08854885,0.0001202,53.2158,46.522,94.557,265.556,0.0016148,0.00025515,0.0,0 STARLINK-5225,1 54063U 22136N   23268.65164243  .00025515  00000-0  16148-2 0  9994,2 54063  53.2158  46.5220 0001202  94.5570 265.5560 15.08854885 51577,6917.835,95.437,540.531,538.868,0.0
54063.0,STARLINK-5225,PAYLOAD,2023-09-26 13:53:46,15.0884311,0.0001171,53.2182,42.3577,109.768,250.3439,0.0014191,0.00022371,0.0,0 STARLINK-5225,1 54063U 22136N   23269.57901126  .00022371  00000-0  14191-2 0  9998,2 54063  53.2182  42.3577 0001171 109.7680 250.3439 15.08843110 51711,6917.871,95.437,540.546,538.926,0.0
54063.0,STARLINK-5225,PAYLOAD,2023-09-26 15:29:09,15.08836684,0.0001166,53.2179,42.0596,84.6257,275.4868,0.0009636,0.0001508,0.0,0 STARLINK-5225,1 54063U 22136N   23269.64525275  .00015080  00000-0  96360-3 0  9991,2 54063  53.2179  42.0596 0001166  84.6257 275.4868 15.08836684 52207,6917.891,95.438,540.562,538.949,0.0
54063.0,STARLINK-5225,PAYLOAD,2023-09-27 12:09:10,15.08845463,0.0001221,53.2186,38.1972,78.5228,281.5901,0.00053961,8.312e-05,0.0,0 STARLINK-5225,1 54063U 22136N   23270.50637400  .00008312  00000-0  53961-3 0  9992,2 54063  53.2186  38.1972 0001221  78.5228 281.5901 15.08845463 51852,6917.864,95.437,540.573,538.884,0.0
54063.0,STARLINK-5225,PAYLOAD,2023-09-27 15:19:56,15.08852477,0.0001284,53.2191,37.6026,78.819,281.2947,0.00066888,0.00010377,0.0,0 STARLINK-5225,1 54063U 22136N   23270.63885194  .00010377  00000-0  66888-3 0  9997,2 54063  53.2191  37.6026 0001284  78.8190 281.2947 15.08852477 52358,6917.842,95.437,540.596,538.819,0.0
54063.0,STARLINK-5225,PAYLOAD,2023-09-28 11:59:57,15.08842301,0.0001173,53.2194,33.7351,87.7706,272.3421,0.00016765,2.381e-05,0.0,0 STARLINK-5225,1 54063U 22136N   23271.49997415  .00002381  00000-0  16765-3 0  9997,2 54063  53.2194  33.7351 0001173  87.7706 272.3421 15.08842301 52485,6917.873,95.437,540.55,538.927,0.0
54063.0,STARLINK-5225,PAYLOAD,2023-09-28 13:35:20,15.08842282,0.0001334,53.2195,33.4406,80.2475,279.8668,0.00017164,2.445e-05,0.0,0 STARLINK-5225,1 54063U 22136N   23271.56621502  .00002445  00000-0  17164-3 0  9991,2 54063  53.2195  33.4406 0001334  80.2475 279.8668 15.08842282 52016,6917.873,95.437,540.661,538.816,0.0
54063.0,STARLINK-5225,PAYLOAD,2023-09-29 13:26:07,15.08847042,0.0001271,53.2187,28.9781,77.3686,282.7448,0.00024302,3.583e-05,0.0,0 STARLINK-5225,1 54063U 22136N   23272.55981396  .00003583  00000-0  24302-3 0  9997,2 54063  53.2187  28.9781 0001271  77.3686 282.7448 15.08847042 52167,6917.859,95.437,540.603,538.845,0.0
54063.0,STARLINK-5225,PAYLOAD,2023-09-29 15:01:30,15.08851906,0.0001346,53.2194,28.6801,94.8262,265.2884,0.00025637,3.796e-05,0.0,0 STARLINK-5225,1 54063U 22136N   23272.62605094  .00003796  00000-0  25637-3 0  9991,2 54063  53.2194  28.6801 0001346  94.8262 265.2884 15.08851906 52650,6917.844,95.437,540.64,538.778,0.0
54063.0,STARLINK-5225,PAYLOAD,2023-09-30 00:33:49,15.0884013,0.0001304,53.2192,26.8956,113.1212,246.9918,0.00019256,2.778e-05,0.0,0 STARLINK-5225,1 54063U 22136N   23273.02349232  .00002778  00000-0  19256-3 0  9994,2 54063  53.2192  26.8956 0001304 113.1212 246.9918 15.08840130 52711,6917.88,95.438,540.647,538.843,0.0
54063.0,STARLINK-5225,PAYLOAD,2023-09-30 14:52:17,15.08857007,0.0001417,53.2194,24.2204,93.0383,267.0772,0.00056549,8.727e-05,0.0,0 STARLINK-5225,1 54063U 22136N   23273.61964879  .00008727  00000-0  56549-3 0  9995,2 54063  53.2194  24.2204 0001417  93.0383 267.0772 15.08857007 52804,6917.828,95.436,540.674,538.713,0.0
54063.0,STARLINK-5225,PAYLOAD,2023-10-01 13:07:41,15.08847212,0.0001437,53.2197,20.0567,73.5214,286.5936,0.0004403,6.728e-05,0.0,0 STARLINK-5225,1 54063U 22136N   23274.54701132  .00006728  00000-0  44030-3 0  9990,2 54063  53.2197  20.0567 0001437  73.5214 286.5936 15.08847212 52941,6917.858,95.437,540.717,538.729,0.0
54063.0,STARLINK-5225,PAYLOAD,2023-10-01 16:18:27,15.08849896,0.0001452,53.2198,19.462,74.6851,285.4301,0.00043282,6.609e-05,0.0,0 STARLINK-5225,1 54063U 22136N   23274.67949037  .00006609  00000-0  43282-3 0  9998,2 54063  53.2198  19.4620 0001452  74.6851 285.4301 15.08849896 52483,6917.85,95.437,540.72,538.711,0.0
